{
  "type": "FeatureCollection",
  "name": "BurnLens bounded TNM BLM planning context",
  "features": [
    {
      "type": "Feature",
      "id": "tnm-blm-boundary-1",
      "geometry": {
        "type": "MultiPolygon",
        "coordinates": [
          [
            [
              [
                -121.00331946,
                45.04813592
              ],
              [
                -121.00209026,
                45.04788581
              ],
              [
                -121.00118053,
                45.04770068
              ],
              [
                -121.00099372,
                45.04766266
              ],
              [
                -121.00038827,
                45.04752653
              ],
              [
                -120.99972677,
                45.04730564
              ],
              [
                -120.9993057,
                45.04696336
              ],
              [
                -120.99894509,
                45.04658035
              ],
              [
                -120.99879202,
                45.04631621
              ],
              [
                -120.99874087,
                45.04622792
              ],
              [
                -120.99862308,
                45.04565378
              ],
              [
                -120.99822031,
                45.0442235
              ],
              [
                -120.99796917,
                45.04330087
              ],
              [
                -120.99785395,
                45.0428776
              ],
              [
                -120.9978397,
                45.04284007
              ],
              [
                -120.99779455,
                45.04272121
              ],
              [
                -120.99733122,
                45.04150103
              ],
              [
                -120.99716538,
                45.04061542
              ],
              [
                -120.9969738,
                45.03959224
              ],
              [
                -120.99683374,
                45.0391418
              ],
              [
                -120.99682621,
                45.03911759
              ],
              [
                -120.99638178,
                45.03768848
              ],
              [
                -120.99553765,
                45.03553875
              ],
              [
                -120.99540757,
                45.03520744
              ],
              [
                -120.99480533,
                45.03255135
              ],
              [
                -120.99463902,
                45.03194459
              ],
              [
                -120.99402675,
                45.02971063
              ],
              [
                -120.99361729,
                45.0283481
              ],
              [
                -120.9929455,
                45.02611242
              ],
              [
                -120.99248781,
                45.02475067
              ],
              [
                -120.99248699,
                45.02474824
              ],
              [
                -120.9923492,
                45.02433825
              ],
              [
                -120.99204749,
                45.02315998
              ],
              [
                -120.99159424,
                45.02172392
              ],
              [
                -120.99130546,
                45.02112198
              ],
              [
                -120.99075799,
                45.01998083
              ],
              [
                -120.99008072,
                45.01845658
              ],
              [
                -120.98978151,
                45.01775816
              ],
              [
                -120.98972012,
                45.01748929
              ],
              [
                -120.98967833,
                45.01730624
              ],
              [
                -120.98985355,
                45.0167422
              ],
              [
                -120.99000358,
                45.01633075
              ],
              [
                -120.9901006,
                45.01566631
              ],
              [
                -120.99034748,
                45.01459492
              ],
              [
                -120.99043123,
                45.01385668
              ],
              [
                -120.99048049,
                45.0134225
              ],
              [
                -120.99082436,
                45.01168666
              ],
              [
                -120.99096484,
                45.01061789
              ],
              [
                -120.99105931,
                45.0102236
              ],
              [
                -120.99118657,
                45.00967491
              ],
              [
                -120.991599,
                45.008926
              ],
              [
                -120.99185597,
                45.0086666
              ],
              [
                -120.99187678,
                45.01022305
              ],
              [
                -120.99696479,
                45.01019365
              ],
              [
                -121.00117855,
                45.01016929
              ],
              [
                -121.00205279,
                45.01016424
              ],
              [
                -121.00201791,
                45.00655224
              ],
              [
                -121.00498296,
                45.00654418
              ],
              [
                -121.00353566,
                45.04817764
              ],
              [
                -121.00331946,
                45.04813592
              ]
            ]
          ],
          [
            [
              [
                -120.86886495,
                44.88424654
              ],
              [
                -120.86887184,
                44.88786592
              ],
              [
                -120.86401788,
                44.88788972
              ],
              [
                -120.86402582,
                44.89151074
              ],
              [
                -120.86403379,
                44.89513161
              ],
              [
                -120.86409239,
                44.89875317
              ],
              [
                -120.864151,
                44.90237451
              ],
              [
                -120.86408231,
                44.90237499
              ],
              [
                -120.85898488,
                44.90240839
              ],
              [
                -120.85895552,
                44.89878414
              ],
              [
                -120.85384419,
                44.89881329
              ],
              [
                -120.85387641,
                44.90244145
              ],
              [
                -120.84876797,
                44.90247449
              ],
              [
                -120.84365249,
                44.90246194
              ],
              [
                -120.83853701,
                44.90244939
              ],
              [
                -120.83858425,
                44.90609063
              ],
              [
                -120.83862938,
                44.90956793
              ],
              [
                -120.84374842,
                44.90957931
              ],
              [
                -120.84375452,
                44.91319122
              ],
              [
                -120.84376059,
                44.91680289
              ],
              [
                -120.8386436,
                44.91679981
              ],
              [
                -120.83352627,
                44.91679627
              ],
              [
                -120.82840895,
                44.91679274
              ],
              [
                -120.82841819,
                44.92041656
              ],
              [
                -120.82842744,
                44.9240404
              ],
              [
                -120.82331129,
                44.92404862
              ],
              [
                -120.8233112,
                44.92765992
              ],
              [
                -120.81818803,
                44.92766842
              ],
              [
                -120.81818093,
                44.93127999
              ],
              [
                -120.81817381,
                44.93489113
              ],
              [
                -120.82331094,
                44.9348821
              ],
              [
                -120.8233111,
                44.93127101
              ],
              [
                -120.82844129,
                44.931262
              ],
              [
                -120.82844807,
                44.93487283
              ],
              [
                -120.82845487,
                44.93848364
              ],
              [
                -120.82847196,
                44.94209298
              ],
              [
                -120.82332864,
                44.94209356
              ],
              [
                -120.82331078,
                44.93849295
              ],
              [
                -120.81816671,
                44.93850226
              ],
              [
                -120.81302264,
                44.93851165
              ],
              [
                -120.81303671,
                44.93490019
              ],
              [
                -120.80789958,
                44.93490903
              ],
              [
                -120.8078786,
                44.93852103
              ],
              [
                -120.80283255,
                44.9385065
              ],
              [
                -120.7977865,
                44.938492
              ],
              [
                -120.79779691,
                44.9420663
              ],
              [
                -120.79780732,
                44.94564057
              ],
              [
                -120.79272779,
                44.94562635
              ],
              [
                -120.78764824,
                44.94561212
              ],
              [
                -120.78767272,
                44.94923988
              ],
              [
                -120.78769716,
                44.95286764
              ],
              [
                -120.78262907,
                44.95288384
              ],
              [
                -120.77756097,
                44.95290003
              ],
              [
                -120.77756994,
                44.95652557
              ],
              [
                -120.77249693,
                44.95654192
              ],
              [
                -120.76742392,
                44.95655805
              ],
              [
                -120.76742285,
                44.96018337
              ],
              [
                -120.76232698,
                44.96018721
              ],
              [
                -120.7623281,
                44.9565612
              ],
              [
                -120.75723227,
                44.95656416
              ],
              [
                -120.75723341,
                44.95293723
              ],
              [
                -120.75724554,
                44.94932936
              ],
              [
                -120.76234679,
                44.94933709
              ],
              [
                -120.76744804,
                44.94934456
              ],
              [
                -120.76747109,
                44.94575641
              ],
              [
                -120.76749412,
                44.94216826
              ],
              [
                -120.76751714,
                44.9385801
              ],
              [
                -120.77256142,
                44.93855072
              ],
              [
                -120.77760572,
                44.93852134
              ],
              [
                -120.78265009,
                44.93849209
              ],
              [
                -120.78769446,
                44.93846285
              ],
              [
                -120.78767793,
                44.93486045
              ],
              [
                -120.79273333,
                44.93487283
              ],
              [
                -120.79272616,
                44.93126803
              ],
              [
                -120.79779098,
                44.931278
              ],
              [
                -120.79779321,
                44.92767056
              ],
              [
                -120.79779542,
                44.92406313
              ],
              [
                -120.80287914,
                44.92406807
              ],
              [
                -120.80796286,
                44.924073
              ],
              [
                -120.80795377,
                44.92045309
              ],
              [
                -120.80794467,
                44.9168332
              ],
              [
                -120.80793561,
                44.91321343
              ],
              [
                -120.81305179,
                44.91320254
              ],
              [
                -120.81816796,
                44.91319141
              ],
              [
                -120.82328404,
                44.9131803
              ],
              [
                -120.82327508,
                44.90955727
              ],
              [
                -120.82839128,
                44.90954514
              ],
              [
                -120.8283422,
                44.90606625
              ],
              [
                -120.82829076,
                44.90242333
              ],
              [
                -120.83341388,
                44.90243637
              ],
              [
                -120.83336459,
                44.89879607
              ],
              [
                -120.83848982,
                44.89881146
              ],
              [
                -120.84361132,
                44.89882696
              ],
              [
                -120.84357016,
                44.89519175
              ],
              [
                -120.8486977,
                44.89520998
              ],
              [
                -120.84869348,
                44.89158698
              ],
              [
                -120.84868927,
                44.88796394
              ],
              [
                -120.85380153,
                44.88793936
              ],
              [
                -120.85379634,
                44.88431819
              ],
              [
                -120.85379114,
                44.88069681
              ],
              [
                -120.85379806,
                44.87707927
              ],
              [
                -120.85889887,
                44.87705638
              ],
              [
                -120.86399367,
                44.87703164
              ],
              [
                -120.86400389,
                44.88065092
              ],
              [
                -120.86885806,
                44.88062717
              ],
              [
                -120.86886495,
                44.88424654
              ]
            ]
          ],
          [
            [
              [
                -120.92431921,
                44.8519164
              ],
              [
                -120.91928133,
                44.85187526
              ],
              [
                -120.91929449,
                44.85549477
              ],
              [
                -120.91425291,
                44.85545838
              ],
              [
                -120.90921131,
                44.85542176
              ],
              [
                -120.90921718,
                44.85905037
              ],
              [
                -120.90418471,
                44.85903936
              ],
              [
                -120.89915221,
                44.85902835
              ],
              [
                -120.8941197,
                44.85901687
              ],
              [
                -120.88908715,
                44.85900542
              ],
              [
                -120.88907849,
                44.86264582
              ],
              [
                -120.88906981,
                44.86628619
              ],
              [
                -120.88906711,
                44.86989782
              ],
              [
                -120.88906441,
                44.87350944
              ],
              [
                -120.88400938,
                44.87347943
              ],
              [
                -120.88400926,
                44.87485605
              ],
              [
                -120.88400907,
                44.87709298
              ],
              [
                -120.88400879,
                44.88070635
              ],
              [
                -120.88401892,
                44.88433183
              ],
              [
                -120.88402907,
                44.88795707
              ],
              [
                -120.87897663,
                44.88792699
              ],
              [
                -120.87896759,
                44.88430349
              ],
              [
                -120.87616931,
                44.88428778
              ],
              [
                -120.87391628,
                44.88427514
              ],
              [
                -120.87390832,
                44.88065357
              ],
              [
                -120.86885806,
                44.88062717
              ],
              [
                -120.86885117,
                44.87700779
              ],
              [
                -120.86884707,
                44.87485605
              ],
              [
                -120.86884428,
                44.87338842
              ],
              [
                -120.86398347,
                44.87341219
              ],
              [
                -120.86397348,
                44.86979365
              ],
              [
                -120.86396351,
                44.86617493
              ],
              [
                -120.86883047,
                44.86614964
              ],
              [
                -120.86883736,
                44.86976904
              ],
              [
                -120.87389479,
                44.8698014
              ],
              [
                -120.87616857,
                44.86981586
              ],
              [
                -120.87895222,
                44.86983356
              ],
              [
                -120.8789501,
                44.86621772
              ],
              [
                -120.87895099,
                44.86258817
              ],
              [
                -120.87895185,
                44.8589586
              ],
              [
                -120.87895273,
                44.85532842
              ],
              [
                -120.87895359,
                44.85169824
              ],
              [
                -120.88402918,
                44.85171146
              ],
              [
                -120.88910478,
                44.85172466
              ],
              [
                -120.89412992,
                44.8517418
              ],
              [
                -120.89915505,
                44.85175894
              ],
              [
                -120.90418024,
                44.85177602
              ],
              [
                -120.90920545,
                44.85179314
              ],
              [
                -120.90915943,
                44.85095371
              ],
              [
                -120.92429686,
                44.85122995
              ],
              [
                -120.92431921,
                44.8519164
              ]
            ]
          ],
          [
            [
              [
                -120.73242374,
                44.95301847
              ],
              [
                -120.73755296,
                44.95299156
              ],
              [
                -120.74268219,
                44.95296464
              ],
              [
                -120.74704202,
                44.95294175
              ],
              [
                -120.74704085,
                44.95656979
              ],
              [
                -120.74703969,
                44.9601978
              ],
              [
                -120.74703853,
                44.96382584
              ],
              [
                -120.74703736,
                44.96745385
              ],
              [
                -120.74274729,
                44.9674702
              ],
              [
                -120.73760951,
                44.96748978
              ],
              [
                -120.73247173,
                44.96750936
              ],
              [
                -120.72733392,
                44.96752894
              ],
              [
                -120.72732408,
                44.96390806
              ],
              [
                -120.72731423,
                44.96028714
              ],
              [
                -120.72730438,
                44.95666628
              ],
              [
                -120.72729453,
                44.95304539
              ],
              [
                -120.73242374,
                44.95301847
              ]
            ]
          ],
          [
            [
              [
                -120.70706012,
                44.97463275
              ],
              [
                -120.70706338,
                44.97099847
              ],
              [
                -120.70706662,
                44.9673642
              ],
              [
                -120.71213341,
                44.96740538
              ],
              [
                -120.7172002,
                44.96744657
              ],
              [
                -120.72226706,
                44.96748776
              ],
              [
                -120.72227363,
                44.97111221
              ],
              [
                -120.71720346,
                44.97107437
              ],
              [
                -120.71720672,
                44.97470218
              ],
              [
                -120.71213344,
                44.97466746
              ],
              [
                -120.70706012,
                44.97463275
              ]
            ]
          ],
          [
            [
              [
                -120.8940848,
                44.87350932
              ],
              [
                -120.89408015,
                44.87486026
              ],
              [
                -120.89407239,
                44.87711811
              ],
              [
                -120.89406,
                44.88072666
              ],
              [
                -120.89407008,
                44.88435867
              ],
              [
                -120.89408017,
                44.88799046
              ],
              [
                -120.89409025,
                44.89162234
              ],
              [
                -120.88909282,
                44.89161451
              ],
              [
                -120.88908155,
                44.88798715
              ],
              [
                -120.88907028,
                44.88435993
              ],
              [
                -120.88905901,
                44.88073271
              ],
              [
                -120.88906171,
                44.87712109
              ],
              [
                -120.8890634,
                44.87485827
              ],
              [
                -120.88906441,
                44.87350944
              ],
              [
                -120.8940848,
                44.87350932
              ]
            ]
          ],
          [
            [
              [
                -120.86889946,
                44.90234338
              ],
              [
                -120.86889257,
                44.89872403
              ],
              [
                -120.8739599,
                44.89875471
              ],
              [
                -120.87397964,
                44.90237027
              ],
              [
                -120.87399936,
                44.90598264
              ],
              [
                -120.87617076,
                44.90599101
              ],
              [
                -120.87909235,
                44.90600229
              ],
              [
                -120.87912511,
                44.90963263
              ],
              [
                -120.87617098,
                44.90961801
              ],
              [
                -120.87401918,
                44.90960737
              ],
              [
                -120.86891325,
                44.90958211
              ],
              [
                -120.86890635,
                44.90596273
              ],
              [
                -120.86889946,
                44.90234338
              ]
            ]
          ],
          [
            [
              [
                -120.78777365,
                44.96736829
              ],
              [
                -120.78775454,
                44.96374314
              ],
              [
                -120.79281197,
                44.96374416
              ],
              [
                -120.7978694,
                44.96374497
              ],
              [
                -120.80293985,
                44.96376341
              ],
              [
                -120.80296359,
                44.96736796
              ],
              [
                -120.79788309,
                44.96734458
              ],
              [
                -120.79282838,
                44.96735643
              ],
              [
                -120.78777365,
                44.96736829
              ]
            ]
          ],
          [
            [
              [
                -120.81310055,
                44.95292251
              ],
              [
                -120.81308544,
                44.94929979
              ],
              [
                -120.81822262,
                44.94930374
              ],
              [
                -120.82336431,
                44.94930779
              ],
              [
                -120.82338217,
                44.9529214
              ],
              [
                -120.81824133,
                44.95292189
              ],
              [
                -120.81310055,
                44.95292251
              ]
            ]
          ],
          [
            [
              [
                -120.90033375,
                45.05767193
              ],
              [
                -120.90542958,
                45.05766664
              ],
              [
                -120.90546485,
                45.06045207
              ],
              [
                -120.90036562,
                45.06035839
              ],
              [
                -120.90033375,
                45.05767193
              ]
            ]
          ],
          [
            [
              [
                -120.82310427,
                44.88790504
              ],
              [
                -120.8230998,
                44.88428823
              ],
              [
                -120.8281749,
                44.88430466
              ],
              [
                -120.83330235,
                44.88431391
              ],
              [
                -120.83330665,
                44.88792793
              ],
              [
                -120.82817926,
                44.88791563
              ],
              [
                -120.82310427,
                44.88790504
              ]
            ]
          ],
          [
            [
              [
                -120.71216734,
                44.8696145
              ],
              [
                -120.71218603,
                44.86598342
              ],
              [
                -120.71730638,
                44.86598607
              ],
              [
                -120.71728908,
                44.8696159
              ],
              [
                -120.71216734,
                44.8696145
              ]
            ]
          ],
          [
            [
              [
                -120.83355884,
                44.93125762
              ],
              [
                -120.83355074,
                44.92764677
              ],
              [
                -120.83866712,
                44.92764211
              ],
              [
                -120.83867641,
                44.93125322
              ],
              [
                -120.83355884,
                44.93125762
              ]
            ]
          ],
          [
            [
              [
                -120.75725932,
                44.93488199
              ],
              [
                -120.75723669,
                44.93125907
              ],
              [
                -120.76233051,
                44.9313014
              ],
              [
                -120.76236502,
                44.93492205
              ],
              [
                -120.75725932,
                44.93488199
              ]
            ]
          ],
          [
            [
              [
                -120.83361906,
                44.94930828
              ],
              [
                -120.83360439,
                44.94569864
              ],
              [
                -120.83871972,
                44.94569498
              ],
              [
                -120.83873207,
                44.94930474
              ],
              [
                -120.83361906,
                44.94930828
              ]
            ]
          ],
          [
            [
              [
                -120.85886552,
                44.8625783
              ],
              [
                -120.85883993,
                44.85895539
              ],
              [
                -120.86393401,
                44.85893266
              ],
              [
                -120.86394875,
                44.8625539
              ],
              [
                -120.85886552,
                44.8625783
              ]
            ]
          ],
          [
            [
              [
                -120.88933694,
                44.90968313
              ],
              [
                -120.88926756,
                44.9060404
              ],
              [
                -120.89430904,
                44.90605483
              ],
              [
                -120.89438718,
                44.90971477
              ],
              [
                -120.88933694,
                44.90968313
              ]
            ]
          ],
          [
            [
              [
                -120.84888275,
                44.92041365
              ],
              [
                -120.84887761,
                44.91680596
              ],
              [
                -120.85397914,
                44.91680838
              ],
              [
                -120.85399113,
                44.92041621
              ],
              [
                -120.84888275,
                44.92041365
              ]
            ]
          ],
          [
            [
              [
                -120.76221807,
                44.90585762
              ],
              [
                -120.76222797,
                44.9022209
              ],
              [
                -120.7672884,
                44.90224141
              ],
              [
                -120.76727362,
                44.9058826
              ],
              [
                -120.76221807,
                44.90585762
              ]
            ]
          ],
          [
            [
              [
                -120.78256079,
                44.87331234
              ],
              [
                -120.78257285,
                44.86968381
              ],
              [
                -120.78764166,
                44.86972034
              ],
              [
                -120.78762809,
                44.8733481
              ],
              [
                -120.78256079,
                44.87331234
              ]
            ]
          ],
          [
            [
              [
                -120.72221549,
                44.95301824
              ],
              [
                -120.72220981,
                44.94939928
              ],
              [
                -120.72728468,
                44.94942448
              ],
              [
                -120.72729453,
                44.95304539
              ],
              [
                -120.72221549,
                44.95301824
              ]
            ]
          ],
          [
            [
              [
                -120.72220413,
                44.94578012
              ],
              [
                -120.72219844,
                44.94216086
              ],
              [
                -120.72726496,
                44.94218267
              ],
              [
                -120.72727483,
                44.94580359
              ],
              [
                -120.72220413,
                44.94578012
              ]
            ]
          ],
          [
            [
              [
                -120.91421725,
                44.87354534
              ],
              [
                -120.91424935,
                44.86993772
              ],
              [
                -120.91931121,
                44.86996739
              ],
              [
                -120.91928844,
                44.87358264
              ],
              [
                -120.91421725,
                44.87354534
              ]
            ]
          ],
          [
            [
              [
                -120.86894908,
                44.93127948
              ],
              [
                -120.86894312,
                44.92766325
              ],
              [
                -120.87399143,
                44.92768846
              ],
              [
                -120.8739857,
                44.9312995
              ],
              [
                -120.86894908,
                44.93127948
              ]
            ]
          ],
          [
            [
              [
                -120.90408527,
                44.89163763
              ],
              [
                -120.90407754,
                44.88799665
              ],
              [
                -120.9090763,
                44.88799952
              ],
              [
                -120.90908287,
                44.89164508
              ],
              [
                -120.90408527,
                44.89163763
              ]
            ]
          ],
          [
            [
              [
                -120.88410376,
                44.97473387
              ],
              [
                -120.8840924,
                44.97112283
              ],
              [
                -120.88911823,
                44.97114425
              ],
              [
                -120.88913141,
                44.97475357
              ],
              [
                -120.88410376,
                44.97473387
              ]
            ]
          ],
          [
            [
              [
                -120.89918137,
                44.89886936
              ],
              [
                -120.89909658,
                44.89526614
              ],
              [
                -120.904093,
                44.89527838
              ],
              [
                -120.904191,
                44.89888102
              ],
              [
                -120.89918137,
                44.89886936
              ]
            ]
          ]
        ]
      },
      "properties": {
        "context_class": "blm-boundary",
        "analytical_status": "official-context"
      }
    }
  ],
  "warning": "Generalized planning context only. Not a cadastral, survey, access, ownership, or legal determination."
}
